LYNK TOWER 5            
1 59121U 24043Z   26068.92489786  .00009048  00000+0  31902-3 0  9994
2 59121  97.5458 204.7305 0010406 234.6422 125.3846 15.29454506111860
STARLINK-33842          
1 63782U 25091H   26068.96203176  .00041098  00000+0  14941-2 0  9991
2 63782  43.0006  51.0074 0001370 257.3435 102.7264 15.27593628 49034
