[{"OBJECT_NAME":"LYNK TOWER 5","OBJECT_ID":"2024-043Z","EPOCH":"2026-03-09T22:11:51.175104","MEAN_MOTION":15.29454506,"ECCENTRICITY":0.00104056,"INCLINATION":97.5458,"RA_OF_ASC_NODE":204.7305,"ARG_OF_PERICENTER":234.6422,"MEAN_ANOMALY":125.3846,"EPHEMERIS_TYPE":0,"CLASSIFICATION_TYPE":"U","NORAD_CAT_ID":59121,"ELEMENT_SET_NO":999,"REV_AT_EPOCH":11186,"BSTAR":0.00031901545,"MEAN_MOTION_DOT":9.048e-5,"MEAN_MOTION_DDOT":0},{"OBJECT_NAME":"STARLINK-33842","OBJECT_ID":"2025-091H","EPOCH":"2026-03-09T23:05:19.544064","MEAN_MOTION":15.27593628,"ECCENTRICITY":0.00013702,"INCLINATION":43.0006,"RA_OF_ASC_NODE":51.0074,"ARG_OF_PERICENTER":257.3435,"MEAN_ANOMALY":102.7264,"EPHEMERIS_TYPE":0,"CLASSIFICATION_TYPE":"U","NORAD_CAT_ID":63782,"ELEMENT_SET_NO":999,"REV_AT_EPOCH":4903,"BSTAR":0.0014940831,"MEAN_MOTION_DOT":0.00041098,"MEAN_MOTION_DDOT":0}]
